ORBCOMM FM20            
1 25416U 98046D   24282.46789570  .00009388  00000+0  32464-2 0  9997
2 25416  44.9939 292.3850 0001932 291.2004  68.8637 14.35991846368061
ORBCOMM FM16            
1 25417U 98046E   24282.58945273  .00013809  00000+0  46294-2 0  9994
2 25417  44.9935 286.3071 0001654 101.6832 258.4201 14.37262359368033
ORBCOMM FM15            
1 25418U 98046F   24282.43785489  .00025503  00000+0  85464-2 0  9996
2 25418  44.9969 291.4628 0001246 111.8535 248.2445 14.36963210368014
ORBCOMM FM14            
1 25419U 98046G   24282.44103242  .00030752  00000+0  10237-1 0  9996
2 25419  44.9960 290.3135 0000560  25.2175 334.8700 14.37207572367976
ORBCOMM FM13            
1 25420U 98046H   24282.50074389  .00011249  00000+0  38567-2 0  9991
2 25420  44.9973 295.8399 0002533  79.2848 280.8284 14.36282162367033
ORBCOMM FM21            
1 25475U 98053A   24282.53276593  .00009325  00000+0  32169-2 0  9997
2 25475  45.0094  20.2694 0001197 241.2046 118.8681 14.36114254361056
ORBCOMM FM22            
1 25476U 98053B   24282.58676227  .00012310  00000+0  41702-2 0  9992
2 25476  45.0092  16.6031 0000971 340.3367  19.7443 14.36818293361065
ORBCOMM FM23            
1 25477U 98053C   24282.55595003  .00011409  00000+0  39187-2 0  9994
2 25477  45.0094  22.5312 0000690 295.7905  64.2872 14.36183087361512
