<?xml version="1.0" encoding="UTF-8"?>
<ndm xmlns:xsi="http://www.w3.org/2001/XMLSchema-instance" xsi:noNamespaceSchemaLocation="https://sanaregistry.org/r/ndmxml_unqualified/ndmxml-2.0.0-master-2.0.xsd">
<omm id="CCSDS_OMM_VERS" version="2.0">
<header><CREATION_DATE/><ORIGINATOR/></header><body><segment><metadata><OBJECT_NAME>ORBCOMM FM20</OBJECT_NAME><OBJECT_ID>1998-046D</OBJECT_ID><CENTER_NAME>EARTH</CENTER_NAME><REF_FRAME>TEME</REF_FRAME><TIME_SYSTEM>UTC</TIME_SYSTEM><MEAN_ELEMENT_THEORY>SGP4</MEAN_ELEMENT_THEORY></metadata><data><meanElements><EPOCH>2024-10-08T11:13:46.188480</EPOCH><MEAN_MOTION>14.35991846</MEAN_MOTION><ECCENTRICITY>.0001932</ECCENTRICITY><INCLINATION>44.9939</INCLINATION><RA_OF_ASC_NODE>292.3850</RA_OF_ASC_NODE><ARG_OF_PERICENTER>291.2004</ARG_OF_PERICENTER><MEAN_ANOMALY>68.8637</MEAN_ANOMALY></meanElements><tleParameters><EPHEMERIS_TYPE>0</EPHEMERIS_TYPE><CLASSIFICATION_TYPE>U</CLASSIFICATION_TYPE><NORAD_CAT_ID>25416</NORAD_CAT_ID><ELEMENT_SET_NO>999</ELEMENT_SET_NO><REV_AT_EPOCH>36806</REV_AT_EPOCH><BSTAR>.32464E-2</BSTAR><MEAN_MOTION_DOT>.9388E-4</MEAN_MOTION_DOT><MEAN_MOTION_DDOT>0</MEAN_MOTION_DDOT></tleParameters></data></segment></body></omm>
<omm id="CCSDS_OMM_VERS" version="2.0">
<header><CREATION_DATE/><ORIGINATOR/></header><body><segment><metadata><OBJECT_NAME>ORBCOMM FM16</OBJECT_NAME><OBJECT_ID>1998-046E</OBJECT_ID><CENTER_NAME>EARTH</CENTER_NAME><REF_FRAME>TEME</REF_FRAME><TIME_SYSTEM>UTC</TIME_SYSTEM><MEAN_ELEMENT_THEORY>SGP4</MEAN_ELEMENT_THEORY></metadata><data><meanElements><EPOCH>2024-10-08T14:08:48.715872</EPOCH><MEAN_MOTION>14.37262359</MEAN_MOTION><ECCENTRICITY>.0001654</ECCENTRICITY><INCLINATION>44.9935</INCLINATION><RA_OF_ASC_NODE>286.3071</RA_OF_ASC_NODE><ARG_OF_PERICENTER>101.6832</ARG_OF_PERICENTER><MEAN_ANOMALY>258.4201</MEAN_ANOMALY></meanElements><tleParameters><EPHEMERIS_TYPE>0</EPHEMERIS_TYPE><CLASSIFICATION_TYPE>U</CLASSIFICATION_TYPE><NORAD_CAT_ID>25417</NORAD_CAT_ID><ELEMENT_SET_NO>999</ELEMENT_SET_NO><REV_AT_EPOCH>36803</REV_AT_EPOCH><BSTAR>.46294E-2</BSTAR><MEAN_MOTION_DOT>.13809E-3</MEAN_MOTION_DOT><MEAN_MOTION_DDOT>0</MEAN_MOTION_DDOT></tleParameters></data></segment></body></omm>
<omm id="CCSDS_OMM_VERS" version="2.0">
<header><CREATION_DATE/><ORIGINATOR/></header><body><segment><metadata><OBJECT_NAME>ORBCOMM FM15</OBJECT_NAME><OBJECT_ID>1998-046F</OBJECT_ID><CENTER_NAME>EARTH</CENTER_NAME><REF_FRAME>TEME</REF_FRAME><TIME_SYSTEM>UTC</TIME_SYSTEM><MEAN_ELEMENT_THEORY>SGP4</MEAN_ELEMENT_THEORY></metadata><data><meanElements><EPOCH>2024-10-08T10:30:30.662496</EPOCH><MEAN_MOTION>14.36963210</MEAN_MOTION><ECCENTRICITY>.0001246</ECCENTRICITY><INCLINATION>44.9969</INCLINATION><RA_OF_ASC_NODE>291.4628</RA_OF_ASC_NODE><ARG_OF_PERICENTER>111.8535</ARG_OF_PERICENTER><MEAN_ANOMALY>248.2445</MEAN_ANOMALY></meanElements><tleParameters><EPHEMERIS_TYPE>0</EPHEMERIS_TYPE><CLASSIFICATION_TYPE>U</CLASSIFICATION_TYPE><NORAD_CAT_ID>25418</NORAD_CAT_ID><ELEMENT_SET_NO>999</ELEMENT_SET_NO><REV_AT_EPOCH>36801</REV_AT_EPOCH><BSTAR>.85464E-2</BSTAR><MEAN_MOTION_DOT>.25503E-3</MEAN_MOTION_DOT><MEAN_MOTION_DDOT>0</MEAN_MOTION_DDOT></tleParameters></data></segment></body></omm>
<omm id="CCSDS_OMM_VERS" version="2.0">
<header><CREATION_DATE/><ORIGINATOR/></header><body><segment><metadata><OBJECT_NAME>ORBCOMM FM14</OBJECT_NAME><OBJECT_ID>1998-046G</OBJECT_ID><CENTER_NAME>EARTH</CENTER_NAME><REF_FRAME>TEME</REF_FRAME><TIME_SYSTEM>UTC</TIME_SYSTEM><MEAN_ELEMENT_THEORY>SGP4</MEAN_ELEMENT_THEORY></metadata><data><meanElements><EPOCH>2024-10-08T10:35:05.201088</EPOCH><MEAN_MOTION>14.37207572</MEAN_MOTION><ECCENTRICITY>.000056</ECCENTRICITY><INCLINATION>44.9960</INCLINATION><RA_OF_ASC_NODE>290.3135</RA_OF_ASC_NODE><ARG_OF_PERICENTER>25.2175</ARG_OF_PERICENTER><MEAN_ANOMALY>334.8700</MEAN_ANOMALY></meanElements><tleParameters><EPHEMERIS_TYPE>0</EPHEMERIS_TYPE><CLASSIFICATION_TYPE>U</CLASSIFICATION_TYPE><NORAD_CAT_ID>25419</NORAD_CAT_ID><ELEMENT_SET_NO>999</ELEMENT_SET_NO><REV_AT_EPOCH>36797</REV_AT_EPOCH><BSTAR>.10237E-1</BSTAR><MEAN_MOTION_DOT>.30752E-3</MEAN_MOTION_DOT><MEAN_MOTION_DDOT>0</MEAN_MOTION_DDOT></tleParameters></data></segment></body></omm>
<omm id="CCSDS_OMM_VERS" version="2.0">
<header><CREATION_DATE/><ORIGINATOR/></header><body><segment><metadata><OBJECT_NAME>ORBCOMM FM13</OBJECT_NAME><OBJECT_ID>1998-046H</OBJECT_ID><CENTER_NAME>EARTH</CENTER_NAME><REF_FRAME>TEME</REF_FRAME><TIME_SYSTEM>UTC</TIME_SYSTEM><MEAN_ELEMENT_THEORY>SGP4</MEAN_ELEMENT_THEORY></metadata><data><meanElements><EPOCH>2024-10-08T12:01:04.272096</EPOCH><MEAN_MOTION>14.36282162</MEAN_MOTION><ECCENTRICITY>.0002533</ECCENTRICITY><INCLINATION>44.9973</INCLINATION><RA_OF_ASC_NODE>295.8399</RA_OF_ASC_NODE><ARG_OF_PERICENTER>79.2848</ARG_OF_PERICENTER><MEAN_ANOMALY>280.8284</MEAN_ANOMALY></meanElements><tleParameters><EPHEMERIS_TYPE>0</EPHEMERIS_TYPE><CLASSIFICATION_TYPE>U</CLASSIFICATION_TYPE><NORAD_CAT_ID>25420</NORAD_CAT_ID><ELEMENT_SET_NO>999</ELEMENT_SET_NO><REV_AT_EPOCH>36703</REV_AT_EPOCH><BSTAR>.38567E-2</BSTAR><MEAN_MOTION_DOT>.11249E-3</MEAN_MOTION_DOT><MEAN_MOTION_DDOT>0</MEAN_MOTION_DDOT></tleParameters></data></segment></body></omm>
<omm id="CCSDS_OMM_VERS" version="2.0">
<header><CREATION_DATE/><ORIGINATOR/></header><body><segment><metadata><OBJECT_NAME>ORBCOMM FM21</OBJECT_NAME><OBJECT_ID>1998-053A</OBJECT_ID><CENTER_NAME>EARTH</CENTER_NAME><REF_FRAME>TEME</REF_FRAME><TIME_SYSTEM>UTC</TIME_SYSTEM><MEAN_ELEMENT_THEORY>SGP4</MEAN_ELEMENT_THEORY></metadata><data><meanElements><EPOCH>2024-10-08T12:47:10.976352</EPOCH><MEAN_MOTION>14.36114254</MEAN_MOTION><ECCENTRICITY>.0001197</ECCENTRICITY><INCLINATION>45.0094</INCLINATION><RA_OF_ASC_NODE>20.2694</RA_OF_ASC_NODE><ARG_OF_PERICENTER>241.2046</ARG_OF_PERICENTER><MEAN_ANOMALY>118.8681</MEAN_ANOMALY></meanElements><tleParameters><EPHEMERIS_TYPE>0</EPHEMERIS_TYPE><CLASSIFICATION_TYPE>U</CLASSIFICATION_TYPE><NORAD_CAT_ID>25475</NORAD_CAT_ID><ELEMENT_SET_NO>999</ELEMENT_SET_NO><REV_AT_EPOCH>36105</REV_AT_EPOCH><BSTAR>.32169E-2</BSTAR><MEAN_MOTION_DOT>.9325E-4</MEAN_MOTION_DOT><MEAN_MOTION_DDOT>0</MEAN_MOTION_DDOT></tleParameters></data></segment></body></omm>
<omm id="CCSDS_OMM_VERS" version="2.0">
<header><CREATION_DATE/><ORIGINATOR/></header><body><segment><metadata><OBJECT_NAME>ORBCOMM FM22</OBJECT_NAME><OBJECT_ID>1998-053B</OBJECT_ID><CENTER_NAME>EARTH</CENTER_NAME><REF_FRAME>TEME</REF_FRAME><TIME_SYSTEM>UTC</TIME_SYSTEM><MEAN_ELEMENT_THEORY>SGP4</MEAN_ELEMENT_THEORY></metadata><data><meanElements><EPOCH>2024-10-08T14:04:56.260128</EPOCH><MEAN_MOTION>14.36818293</MEAN_MOTION><ECCENTRICITY>.0000971</ECCENTRICITY><INCLINATION>45.0092</INCLINATION><RA_OF_ASC_NODE>16.6031</RA_OF_ASC_NODE><ARG_OF_PERICENTER>340.3367</ARG_OF_PERICENTER><MEAN_ANOMALY>19.7443</MEAN_ANOMALY></meanElements><tleParameters><EPHEMERIS_TYPE>0</EPHEMERIS_TYPE><CLASSIFICATION_TYPE>U</CLASSIFICATION_TYPE><NORAD_CAT_ID>25476</NORAD_CAT_ID><ELEMENT_SET_NO>999</ELEMENT_SET_NO><REV_AT_EPOCH>36106</REV_AT_EPOCH><BSTAR>.41702E-2</BSTAR><MEAN_MOTION_DOT>.1231E-3</MEAN_MOTION_DOT><MEAN_MOTION_DDOT>0</MEAN_MOTION_DDOT></tleParameters></data></segment></body></omm>
<omm id="CCSDS_OMM_VERS" version="2.0">
<header><CREATION_DATE/><ORIGINATOR/></header><body><segment><metadata><OBJECT_NAME>ORBCOMM FM23</OBJECT_NAME><OBJECT_ID>1998-053C</OBJECT_ID><CENTER_NAME>EARTH</CENTER_NAME><REF_FRAME>TEME</REF_FRAME><TIME_SYSTEM>UTC</TIME_SYSTEM><MEAN_ELEMENT_THEORY>SGP4</MEAN_ELEMENT_THEORY></metadata><data><meanElements><EPOCH>2024-10-08T13:20:34.082592</EPOCH><MEAN_MOTION>14.36183087</MEAN_MOTION><ECCENTRICITY>.000069</ECCENTRICITY><INCLINATION>45.0094</INCLINATION><RA_OF_ASC_NODE>22.5312</RA_OF_ASC_NODE><ARG_OF_PERICENTER>295.7905</ARG_OF_PERICENTER><MEAN_ANOMALY>64.2872</MEAN_ANOMALY></meanElements><tleParameters><EPHEMERIS_TYPE>0</EPHEMERIS_TYPE><CLASSIFICATION_TYPE>U</CLASSIFICATION_TYPE><NORAD_CAT_ID>25477</NORAD_CAT_ID><ELEMENT_SET_NO>999</ELEMENT_SET_NO><REV_AT_EPOCH>36151</REV_AT_EPOCH><BSTAR>.39187E-2</BSTAR><MEAN_MOTION_DOT>.11409E-3</MEAN_MOTION_DOT><MEAN_MOTION_DDOT>0</MEAN_MOTION_DDOT></tleParameters></data></segment></body></omm>

</ndm>
